ONEWEB-0243             
1 48774U 21045H   25210.81001292 -.00000104  00000+0 -30997-3 0  9992
2 48774  87.9089 323.5079 0002321  92.7563 267.3833 13.15547537201974
ONEWEB-0222             
1 48775U 21045J   25210.86944689 -.00000077  00000+0 -23792-3 0  9998
2 48775  87.9079 323.4519 0001914  92.7201 267.4148 13.15548787202023
ONEWEB-0244             
1 48776U 21045K   25211.04769339 -.00000048  00000+0 -16258-3 0  9994
2 48776  87.9082 323.3967 0002136  99.6835 260.4537 13.15547571203734
ONEWEB-0247             
1 48777U 21045L   25210.81635410 -.00000086  00000+0 -26169-3 0  9995
2 48777  87.9081 323.5157 0002780  86.1566 273.9882 13.15546836202020
ONEWEB-0245             
1 48778U 21045M   25210.81159594 -.00000044  00000+0 -15026-3 0  9994
2 48778  87.9078 323.4800 0001866  92.4392 267.6952 13.15547421201996
ONEWEB-0229             
1 48779U 21045N   25210.80684195 -.00000108  00000+0 -32128-3 0  9997
2 48779  87.9083 323.4800 0002101  98.6478 261.4891 13.15547548202028
ONEWEB-0228             
1 48780U 21045P   25210.84026281  .00000121  00000+0  28822-3 0  9998
2 48780  87.9080 323.4474 0002015  96.3247 263.8113 13.15547395201940
ONEWEB-0232             
1 48781U 21045Q   25210.81478249 -.00000055  00000+0 -17966-3 0  9996
2 48781  87.9075 323.4469 0001958  98.5666 261.5687 13.15549146202266
ONEWEB-0231             
1 48782U 21045R   25210.86864289 -.00000145  00000+0 -42039-3 0  9994
2 48782  87.9072 323.4899 0002160  93.8408 266.2969 13.15549655201965
ONEWEB-0234             
1 48783U 21045S   25210.83045688  .00000097  00000+0  22347-3 0  9990
2 48783  87.9076 323.4643 0001049  94.7460 265.3790 13.15554183202099
ONEWEB-0238             
1 48784U 21045T   25211.21102435  .00000128  00000+0  30705-3 0  9990
2 48784  87.9069 323.3862 0001539 100.0418 260.0886 13.15547870203175
ONEWEB-0240             
1 48785U 21045U   25211.23230259  .00000245  00000+0  61545-3 0  9995
2 48785  87.9081 323.3635 0001899  87.1614 272.9734 13.15549735203198
ONEWEB-0246             
1 48786U 21045V   25210.84645950  .00000100  00000+0  23123-3 0  9990
2 48786  87.9084 323.4516 0002078  98.7571 261.3795 13.15549903201892
ONEWEB-0210             
1 48787U 21045W   25210.82110392 -.00000043  00000+0 -14876-3 0  9999
2 48787  87.9083 323.4560 0002594  94.0659 266.0768 13.15547562201936
ONEWEB-0214             
1 48788U 21045X   25210.82982131  .00000070  00000+0  15221-3 0  9991
2 48788  87.9081 323.4432 0002420  99.3495 260.7909 13.15544962201903
ONEWEB-0221             
1 48789U 21045Y   25211.21725076  .00000208  00000+0  51836-3 0  9994
2 48789  87.9076 323.3956 0002052  92.2979 267.8387 13.15550070203185
ONEWEB-0213             
1 48790U 21045Z   25210.82585765  .00000054  00000+0  10845-3 0  9995
2 48790  87.9081 323.4802 0002145  94.1585 265.9791 13.15547655202059
