[{"OBJECT_NAME":"ONEWEB-0243","OBJECT_ID":"2021-045H","EPOCH":"2025-07-29T19:26:25.116288","MEAN_MOTION":13.15547537,"ECCENTRICITY":0.0002321,"INCLINATION":87.9089,"RA_OF_ASC_NODE":323.5079,"ARG_OF_PERICENTER":92.7563,"MEAN_ANOMALY":267.3833,"EPHEMERIS_TYPE":0,"CLASSIFICATION_TYPE":"U","NORAD_CAT_ID":48774,"ELEMENT_SET_NO":999,"REV_AT_EPOCH":20197,"BSTAR":-0.00030997,"MEAN_MOTION_DOT":-1.04e-6,"MEAN_MOTION_DDOT":0},{"OBJECT_NAME":"ONEWEB-0222","OBJECT_ID":"2021-045J","EPOCH":"2025-07-29T20:52:00.211296","MEAN_MOTION":13.15548787,"ECCENTRICITY":0.0001914,"INCLINATION":87.9079,"RA_OF_ASC_NODE":323.4519,"ARG_OF_PERICENTER":92.7201,"MEAN_ANOMALY":267.4148,"EPHEMERIS_TYPE":0,"CLASSIFICATION_TYPE":"U","NORAD_CAT_ID":48775,"ELEMENT_SET_NO":999,"REV_AT_EPOCH":20202,"BSTAR":-0.00023792,"MEAN_MOTION_DOT":-7.7e-7,"MEAN_MOTION_DDOT":0},{"OBJECT_NAME":"ONEWEB-0244","OBJECT_ID":"2021-045K","EPOCH":"2025-07-30T01:08:40.708896","MEAN_MOTION":13.15547571,"ECCENTRICITY":0.0002136,"INCLINATION":87.9082,"RA_OF_ASC_NODE":323.3967,"ARG_OF_PERICENTER":99.6835,"MEAN_ANOMALY":260.4537,"EPHEMERIS_TYPE":0,"CLASSIFICATION_TYPE":"U","NORAD_CAT_ID":48776,"ELEMENT_SET_NO":999,"REV_AT_EPOCH":20373,"BSTAR":-0.00016258,"MEAN_MOTION_DOT":-4.8e-7,"MEAN_MOTION_DDOT":0},{"OBJECT_NAME":"ONEWEB-0247","OBJECT_ID":"2021-045L","EPOCH":"2025-07-29T19:35:32.994240","MEAN_MOTION":13.15546836,"ECCENTRICITY":0.000278,"INCLINATION":87.9081,"RA_OF_ASC_NODE":323.5157,"ARG_OF_PERICENTER":86.1566,"MEAN_ANOMALY":273.9882,"EPHEMERIS_TYPE":0,"CLASSIFICATION_TYPE":"U","NORAD_CAT_ID":48777,"ELEMENT_SET_NO":999,"REV_AT_EPOCH":20202,"BSTAR":-0.00026169,"MEAN_MOTION_DOT":-8.6e-7,"MEAN_MOTION_DDOT":0},{"OBJECT_NAME":"ONEWEB-0245","OBJECT_ID":"2021-045M","EPOCH":"2025-07-29T19:28:41.889216","MEAN_MOTION":13.15547421,"ECCENTRICITY":0.0001866,"INCLINATION":87.9078,"RA_OF_ASC_NODE":323.48,"ARG_OF_PERICENTER":92.4392,"MEAN_ANOMALY":267.6952,"EPHEMERIS_TYPE":0,"CLASSIFICATION_TYPE":"U","NORAD_CAT_ID":48778,"ELEMENT_SET_NO":999,"REV_AT_EPOCH":20199,"BSTAR":-0.00015026,"MEAN_MOTION_DOT":-4.4e-7,"MEAN_MOTION_DDOT":0},{"OBJECT_NAME":"ONEWEB-0229","OBJECT_ID":"2021-045N","EPOCH":"2025-07-29T19:21:51.144480","MEAN_MOTION":13.15547548,"ECCENTRICITY":0.0002101,"INCLINATION":87.9083,"RA_OF_ASC_NODE":323.48,"ARG_OF_PERICENTER":98.6478,"MEAN_ANOMALY":261.4891,"EPHEMERIS_TYPE":0,"CLASSIFICATION_TYPE":"U","NORAD_CAT_ID":48779,"ELEMENT_SET_NO":999,"REV_AT_EPOCH":20202,"BSTAR":-0.00032128,"MEAN_MOTION_DOT":-1.08e-6,"MEAN_MOTION_DDOT":0},{"OBJECT_NAME":"ONEWEB-0228","OBJECT_ID":"2021-045P","EPOCH":"2025-07-29T20:09:58.706784","MEAN_MOTION":13.15547395,"ECCENTRICITY":0.0002015,"INCLINATION":87.908,"RA_OF_ASC_NODE":323.4474,"ARG_OF_PERICENTER":96.3247,"MEAN_ANOMALY":263.8113,"EPHEMERIS_TYPE":0,"CLASSIFICATION_TYPE":"U","NORAD_CAT_ID":48780,"ELEMENT_SET_NO":999,"REV_AT_EPOCH":20194,"BSTAR":0.00028822,"MEAN_MOTION_DOT":1.21e-6,"MEAN_MOTION_DDOT":0},{"OBJECT_NAME":"ONEWEB-0232","OBJECT_ID":"2021-045Q","EPOCH":"2025-07-29T19:33:17.207136","MEAN_MOTION":13.15549146,"ECCENTRICITY":0.0001958,"INCLINATION":87.9075,"RA_OF_ASC_NODE":323.4469,"ARG_OF_PERICENTER":98.5666,"MEAN_ANOMALY":261.5687,"EPHEMERIS_TYPE":0,"CLASSIFICATION_TYPE":"U","NORAD_CAT_ID":48781,"ELEMENT_SET_NO":999,"REV_AT_EPOCH":20226,"BSTAR":-0.00017966,"MEAN_MOTION_DOT":-5.5e-7,"MEAN_MOTION_DDOT":0},{"OBJECT_NAME":"ONEWEB-0231","OBJECT_ID":"2021-045R","EPOCH":"2025-07-29T20:50:50.745696","MEAN_MOTION":13.15549655,"ECCENTRICITY":0.000216,"INCLINATION":87.9072,"RA_OF_ASC_NODE":323.4899,"ARG_OF_PERICENTER":93.8408,"MEAN_ANOMALY":266.2969,"EPHEMERIS_TYPE":0,"CLASSIFICATION_TYPE":"U","NORAD_CAT_ID":48782,"ELEMENT_SET_NO":999,"REV_AT_EPOCH":20196,"BSTAR":-0.00042039,"MEAN_MOTION_DOT":-1.45e-6,"MEAN_MOTION_DDOT":0},{"OBJECT_NAME":"ONEWEB-0234","OBJECT_ID":"2021-045S","EPOCH":"2025-07-29T19:55:51.474432","MEAN_MOTION":13.15554183,"ECCENTRICITY":0.0001049,"INCLINATION":87.9076,"RA_OF_ASC_NODE":323.4643,"ARG_OF_PERICENTER":94.746,"MEAN_ANOMALY":265.379,"EPHEMERIS_TYPE":0,"CLASSIFICATION_TYPE":"U","NORAD_CAT_ID":48783,"ELEMENT_SET_NO":999,"REV_AT_EPOCH":20209,"BSTAR":0.00022347,"MEAN_MOTION_DOT":9.7e-7,"MEAN_MOTION_DDOT":0},{"OBJECT_NAME":"ONEWEB-0238","OBJECT_ID":"2021-045T","EPOCH":"2025-07-30T05:03:52.503840","MEAN_MOTION":13.1554787,"ECCENTRICITY":0.0001539,"INCLINATION":87.9069,"RA_OF_ASC_NODE":323.3862,"ARG_OF_PERICENTER":100.0418,"MEAN_ANOMALY":260.0886,"EPHEMERIS_TYPE":0,"CLASSIFICATION_TYPE":"U","NORAD_CAT_ID":48784,"ELEMENT_SET_NO":999,"REV_AT_EPOCH":20317,"BSTAR":0.00030705,"MEAN_MOTION_DOT":1.28e-6,"MEAN_MOTION_DDOT":0},{"OBJECT_NAME":"ONEWEB-0240","OBJECT_ID":"2021-045U","EPOCH":"2025-07-30T05:34:30.943776","MEAN_MOTION":13.15549735,"ECCENTRICITY":0.0001899,"INCLINATION":87.9081,"RA_OF_ASC_NODE":323.3635,"ARG_OF_PERICENTER":87.1614,"MEAN_ANOMALY":272.9734,"EPHEMERIS_TYPE":0,"CLASSIFICATION_TYPE":"U","NORAD_CAT_ID":48785,"ELEMENT_SET_NO":999,"REV_AT_EPOCH":20319,"BSTAR":0.00061545,"MEAN_MOTION_DOT":2.45e-6,"MEAN_MOTION_DDOT":0},{"OBJECT_NAME":"ONEWEB-0246","OBJECT_ID":"2021-045V","EPOCH":"2025-07-29T20:18:54.100800","MEAN_MOTION":13.15549903,"ECCENTRICITY":0.0002078,"INCLINATION":87.9084,"RA_OF_ASC_NODE":323.4516,"ARG_OF_PERICENTER":98.7571,"MEAN_ANOMALY":261.3795,"EPHEMERIS_TYPE":0,"CLASSIFICATION_TYPE":"U","NORAD_CAT_ID":48786,"ELEMENT_SET_NO":999,"REV_AT_EPOCH":20189,"BSTAR":0.00023123,"MEAN_MOTION_DOT":1.0e-6,"MEAN_MOTION_DDOT":0},{"OBJECT_NAME":"ONEWEB-0210","OBJECT_ID":"2021-045W","EPOCH":"2025-07-29T19:42:23.378688","MEAN_MOTION":13.15547562,"ECCENTRICITY":0.0002594,"INCLINATION":87.9083,"RA_OF_ASC_NODE":323.456,"ARG_OF_PERICENTER":94.0659,"MEAN_ANOMALY":266.0768,"EPHEMERIS_TYPE":0,"CLASSIFICATION_TYPE":"U","NORAD_CAT_ID":48787,"ELEMENT_SET_NO":999,"REV_AT_EPOCH":20193,"BSTAR":-0.00014876,"MEAN_MOTION_DOT":-4.3e-7,"MEAN_MOTION_DDOT":0},{"OBJECT_NAME":"ONEWEB-0214","OBJECT_ID":"2021-045X","EPOCH":"2025-07-29T19:54:56.561184","MEAN_MOTION":13.15544962,"ECCENTRICITY":0.000242,"INCLINATION":87.9081,"RA_OF_ASC_NODE":323.4432,"ARG_OF_PERICENTER":99.3495,"MEAN_ANOMALY":260.7909,"EPHEMERIS_TYPE":0,"CLASSIFICATION_TYPE":"U","NORAD_CAT_ID":48788,"ELEMENT_SET_NO":999,"REV_AT_EPOCH":20190,"BSTAR":0.00015221,"MEAN_MOTION_DOT":7.0e-7,"MEAN_MOTION_DDOT":0},{"OBJECT_NAME":"ONEWEB-0221","OBJECT_ID":"2021-045Y","EPOCH":"2025-07-30T05:12:50.465664","MEAN_MOTION":13.1555007,"ECCENTRICITY":0.0002052,"INCLINATION":87.9076,"RA_OF_ASC_NODE":323.3956,"ARG_OF_PERICENTER":92.2979,"MEAN_ANOMALY":267.8387,"EPHEMERIS_TYPE":0,"CLASSIFICATION_TYPE":"U","NORAD_CAT_ID":48789,"ELEMENT_SET_NO":999,"REV_AT_EPOCH":20318,"BSTAR":0.00051836,"MEAN_MOTION_DOT":2.08e-6,"MEAN_MOTION_DDOT":0},{"OBJECT_NAME":"ONEWEB-0213","OBJECT_ID":"2021-045Z","EPOCH":"2025-07-29T19:49:14.100960","MEAN_MOTION":13.15547655,"ECCENTRICITY":0.0002145,"INCLINATION":87.9081,"RA_OF_ASC_NODE":323.4802,"ARG_OF_PERICENTER":94.1585,"MEAN_ANOMALY":265.9791,"EPHEMERIS_TYPE":0,"CLASSIFICATION_TYPE":"U","NORAD_CAT_ID":48790,"ELEMENT_SET_NO":999,"REV_AT_EPOCH":20205,"BSTAR":0.00010845,"MEAN_MOTION_DOT":5.4e-7,"MEAN_MOTION_DDOT":0}]
